{
"type": "FeatureCollection",
"name": "match_shapes_vp",
"crs": { "type": "name", "properties": { "name": "urn:ogc:def:crs:EPSG::6423" } },
"features": [
{ "type": "Feature", "properties": { "ped_signal": false, "tsp_applied": true, "shape_id": "shp-1-05" }, "geometry": { "type": "Point", "coordinates": [ 1963885.810869611101225, 558420.386966030928306 ] } },
{ "type": "Feature", "properties": { "ped_signal": false, "tsp_applied": false, "shape_id": "shp-1-05" }, "geometry": { "type": "Point", "coordinates": [ 1965868.568252156255767, 559360.829219808918424 ] } },
{ "type": "Feature", "properties": { "ped_signal": false, "tsp_applied": true, "shape_id": "shp-1-05" }, "geometry": { "type": "Point", "coordinates": [ 1965550.783618434099481, 559193.899620795855299 ] } },
{ "type": "Feature", "properties": { "ped_signal": false, "tsp_applied": true, "shape_id": "shp-1-05" }, "geometry": { "type": "Point", "coordinates": [ 1965444.214495804859325, 559140.282737630186602 ] } },
{ "type": "Feature", "properties": { "ped_signal": false, "tsp_applied": true, "shape_id": "shp-1-05" }, "geometry": { "type": "Point", "coordinates": [ 1965029.381393052637577, 558990.45513691205997 ] } },
{ "type": "Feature", "properties": { "ped_signal": false, "tsp_applied": true, "shape_id": "shp-1-05" }, "geometry": { "type": "Point", "coordinates": [ 1964983.271218754351139, 558976.37696950440295 ] } },
{ "type": "Feature", "properties": { "ped_signal": false, "tsp_applied": true, "shape_id": "shp-1-05" }, "geometry": { "type": "Point", "coordinates": [ 1964786.66009021946229, 558917.25391769525595 ] } },
{ "type": "Feature", "properties": { "ped_signal": false, "tsp_applied": true, "shape_id": "shp-1-05" }, "geometry": { "type": "Point", "coordinates": [ 1964547.308224799111485, 558836.952047646394931 ] } },
{ "type": "Feature", "properties": { "ped_signal": false, "tsp_applied": true, "shape_id": "shp-1-05" }, "geometry": { "type": "Point", "coordinates": [ 1964404.750441819429398, 558731.610076628741808 ] } },
{ "type": "Feature", "properties": { "ped_signal": false, "tsp_applied": true, "shape_id": "shp-1-05" }, "geometry": { "type": "Point", "coordinates": [ 1964314.695839142194018, 558670.420640776632354 ] } },
{ "type": "Feature", "properties": { "ped_signal": false, "tsp_applied": true, "shape_id": "shp-1-05" }, "geometry": { "type": "Point", "coordinates": [ 1964162.166062606265768, 558556.977274141274393 ] } },
{ "type": "Feature", "properties": { "ped_signal": false, "tsp_applied": true, "shape_id": "shp-1-05" }, "geometry": { "type": "Point", "coordinates": [ 1963973.78729854663834, 558426.291873167734593 ] } },
{ "type": "Feature", "properties": { "ped_signal": false, "tsp_applied": true, "shape_id": "shp-1-05" }, "geometry": { "type": "Point", "coordinates": [ 1963768.033015307504684, 558280.791244118241593 ] } },
{ "type": "Feature", "properties": { "ped_signal": false, "tsp_applied": true, "shape_id": "shp-1-05" }, "geometry": { "type": "Point", "coordinates": [ 1963680.60001933388412, 558314.699000601074658 ] } },
{ "type": "Feature", "properties": { "ped_signal": false, "tsp_applied": true, "shape_id": "shp-1-05" }, "geometry": { "type": "Point", "coordinates": [ 1963602.120000294642523, 558251.370518630952574 ] } },
{ "type": "Feature", "properties": { "ped_signal": false, "tsp_applied": true, "shape_id": "shp-1-05" }, "geometry": { "type": "Point", "coordinates": [ 1963537.472786898491904, 558158.367433420848101 ] } },
{ "type": "Feature", "properties": { "ped_signal": false, "tsp_applied": true, "shape_id": "shp-1-05" }, "geometry": { "type": "Point", "coordinates": [ 1963499.49351326120086, 558096.628034611931071 ] } },
{ "type": "Feature", "properties": { "ped_signal": false, "tsp_applied": true, "shape_id": "shp-1-05" }, "geometry": { "type": "Point", "coordinates": [ 1963463.961260357871652, 558070.243974005337805 ] } },
{ "type": "Feature", "properties": { "ped_signal": false, "tsp_applied": true, "shape_id": "shp-1-05" }, "geometry": { "type": "Point", "coordinates": [ 1963298.294972108444199, 557952.113699832349084 ] } },
{ "type": "Feature", "properties": { "ped_signal": false, "tsp_applied": true, "shape_id": "shp-1-05" }, "geometry": { "type": "Point", "coordinates": [ 1963157.065899903420359, 557858.266486641601659 ] } },
{ "type": "Feature", "properties": { "ped_signal": false, "tsp_applied": true, "shape_id": "shp-1-05" }, "geometry": { "type": "Point", "coordinates": [ 1963015.999646910931915, 557754.974437414784916 ] } },
{ "type": "Feature", "properties": { "ped_signal": false, "tsp_applied": true, "shape_id": "shp-1-05" }, "geometry": { "type": "Point", "coordinates": [ 1962829.435897110030055, 557613.647786349290982 ] } },
{ "type": "Feature", "properties": { "ped_signal": false, "tsp_applied": true, "shape_id": "shp-1-05" }, "geometry": { "type": "Point", "coordinates": [ 1962555.660048153949901, 557428.389242491917685 ] } },
{ "type": "Feature", "properties": { "ped_signal": false, "tsp_applied": true, "shape_id": "shp-1-05" }, "geometry": { "type": "Point", "coordinates": [ 1962468.996298332465813, 557337.985024668043479 ] } },
{ "type": "Feature", "properties": { "ped_signal": false, "tsp_applied": true, "shape_id": "shp-1-05" }, "geometry": { "type": "Point", "coordinates": [ 1962239.913796452106908, 557086.302111498080194 ] } },
{ "type": "Feature", "properties": { "ped_signal": false, "tsp_applied": true, "shape_id": "shp-1-05" }, "geometry": { "type": "Point", "coordinates": [ 1962208.804880096111447, 557050.02872836694587 ] } },
{ "type": "Feature", "properties": { "ped_signal": true, "tsp_applied": true, "shape_id": "shp-1-05" }, "geometry": { "type": "Point", "coordinates": [ 1962056.142895051743835, 556794.946206611348316 ] } },
{ "type": "Feature", "properties": { "ped_signal": false, "tsp_applied": true, "shape_id": "shp-1-05" }, "geometry": { "type": "Point", "coordinates": [ 1962010.718284718692303, 556700.188598072389141 ] } },
{ "type": "Feature", "properties": { "ped_signal": false, "tsp_applied": true, "shape_id": "shp-1-05" }, "geometry": { "type": "Point", "coordinates": [ 1961970.27321625361219, 556617.180215837201104 ] } },
{ "type": "Feature", "properties": { "ped_signal": false, "tsp_applied": true, "shape_id": "shp-1-05" }, "geometry": { "type": "Point", "coordinates": [ 1961853.764192011905834, 556368.674474780797027 ] } },
{ "type": "Feature", "properties": { "ped_signal": false, "tsp_applied": true, "shape_id": "shp-1-05" }, "geometry": { "type": "Point", "coordinates": [ 1961700.577553360722959, 556028.065742836100981 ] } },
{ "type": "Feature", "properties": { "ped_signal": false, "tsp_applied": true, "shape_id": "shp-1-05" }, "geometry": { "type": "Point", "coordinates": [ 1961549.687061687232926, 555699.221106056589633 ] } },
{ "type": "Feature", "properties": { "ped_signal": false, "tsp_applied": true, "shape_id": "shp-1-05" }, "geometry": { "type": "Point", "coordinates": [ 1961416.134382771095261, 555553.022303712670691 ] } },
{ "type": "Feature", "properties": { "ped_signal": false, "tsp_applied": true, "shape_id": "shp-1-05" }, "geometry": { "type": "Point", "coordinates": [ 1961011.851144742919132, 555295.852910506189801 ] } },
{ "type": "Feature", "properties": { "ped_signal": false, "tsp_applied": true, "shape_id": "shp-1-05" }, "geometry": { "type": "Point", "coordinates": [ 1960699.978559685638174, 555254.837845554342493 ] } },
{ "type": "Feature", "properties": { "ped_signal": false, "tsp_applied": true, "shape_id": "shp-1-05" }, "geometry": { "type": "Point", "coordinates": [ 1960427.854977906681597, 555220.79610366653651 ] } },
{ "type": "Feature", "properties": { "ped_signal": false, "tsp_applied": true, "shape_id": "shp-1-05" }, "geometry": { "type": "Point", "coordinates": [ 1959854.349183046724647, 555214.419535684981383 ] } },
{ "type": "Feature", "properties": { "ped_signal": false, "tsp_applied": true, "shape_id": "shp-1-05" }, "geometry": { "type": "Point", "coordinates": [ 1959720.983945780200884, 555155.145662636845373 ] } },
{ "type": "Feature", "properties": { "ped_signal": false, "tsp_applied": true, "shape_id": "shp-1-05" }, "geometry": { "type": "Point", "coordinates": [ 1959518.368618154432625, 555040.81946493848227 ] } },
{ "type": "Feature", "properties": { "ped_signal": false, "tsp_applied": true, "shape_id": "shp-1-05" }, "geometry": { "type": "Point", "coordinates": [ 1959137.868640153901652, 554806.872604912030511 ] } },
{ "type": "Feature", "properties": { "ped_signal": false, "tsp_applied": true, "shape_id": "shp-1-05" }, "geometry": { "type": "Point", "coordinates": [ 1958916.795066408813, 554674.720640018116683 ] } },
{ "type": "Feature", "properties": { "ped_signal": false, "tsp_applied": true, "shape_id": "shp-1-05" }, "geometry": { "type": "Point", "coordinates": [ 1958778.877603223547339, 554593.346532138530165 ] } },
{ "type": "Feature", "properties": { "ped_signal": false, "tsp_applied": false, "shape_id": "shp-1-05" }, "geometry": { "type": "Point", "coordinates": [ 1958638.00424949452281, 554509.411053630406968 ] } },
{ "type": "Feature", "properties": { "ped_signal": false, "tsp_applied": false, "shape_id": "shp-1-05" }, "geometry": { "type": "Point", "coordinates": [ 1958234.165929665090516, 554266.261821803520434 ] } },
{ "type": "Feature", "properties": { "ped_signal": false, "tsp_applied": false, "shape_id": "shp-1-05" }, "geometry": { "type": "Point", "coordinates": [ 1957978.904340288834646, 554085.814783679088578 ] } },
{ "type": "Feature", "properties": { "ped_signal": false, "tsp_applied": false, "shape_id": "shp-1-05" }, "geometry": { "type": "Point", "coordinates": [ 1957943.746595257194713, 554055.213722862652503 ] } },
{ "type": "Feature", "properties": { "ped_signal": false, "tsp_applied": false, "shape_id": "shp-1-05" }, "geometry": { "type": "Point", "coordinates": [ 1957403.886208305601031, 553645.515926816733554 ] } },
{ "type": "Feature", "properties": { "ped_signal": false, "tsp_applied": false, "shape_id": "shp-1-05" }, "geometry": { "type": "Point", "coordinates": [ 1957174.372344982111827, 553475.232914424035698 ] } },
{ "type": "Feature", "properties": { "ped_signal": false, "tsp_applied": false, "shape_id": "shp-1-05" }, "geometry": { "type": "Point", "coordinates": [ 1956977.976614417741075, 553326.848982756026089 ] } },
{ "type": "Feature", "properties": { "ped_signal": true, "tsp_applied": false, "shape_id": "shp-1-05" }, "geometry": { "type": "Point", "coordinates": [ 1956729.441695490619168, 553657.635234541492537 ] } },
{ "type": "Feature", "properties": { "ped_signal": false, "tsp_applied": false, "shape_id": "shp-1-05" }, "geometry": { "type": "Point", "coordinates": [ 1956609.866178061347455, 553836.304717682534829 ] } },
{ "type": "Feature", "properties": { "ped_signal": false, "tsp_applied": false, "shape_id": "shp-1-05" }, "geometry": { "type": "Point", "coordinates": [ 1956572.148121874313802, 553897.064487071358599 ] } },
{ "type": "Feature", "properties": { "ped_signal": true, "tsp_applied": false, "shape_id": "shp-1-05" }, "geometry": { "type": "Point", "coordinates": [ 1956459.327007118146867, 554063.057462287484668 ] } },
{ "type": "Feature", "properties": { "ped_signal": false, "tsp_applied": false, "shape_id": "shp-1-05" }, "geometry": { "type": "Point", "coordinates": [ 1956371.627253310289234, 554190.195252187666483 ] } },
{ "type": "Feature", "properties": { "ped_signal": false, "tsp_applied": true, "shape_id": "shp-1-05" }, "geometry": { "type": "Point", "coordinates": [ 1959816.683493226533756, 555209.357956352410838 ] } }
]
}
