{
"type": "FeatureCollection",
"name": "shape_shp-1-05",
"crs": { "type": "name", "properties": { "name": "urn:ogc:def:crs:OGC:1.3:CRS84" } },
"features": [
{ "type": "Feature", "properties": { "key": "98977e0eaf6bdf6b72f1ac19885e1cf8", "feed_key": "f6774d861953d4f4cdcffec95e2652c7", "shape_id": "shp-1-05", "shape_array_key": "08b4b1a735fc8a6a7c50ff959ebe4b51", "feed_timezone": "America/Los_Angeles", "n_trips": 56, "shape_first_departure_datetime_pacific": "2025-05-05T06:00:00", "shape_last_arrival_datetime_pacific": "2025-05-05T22:24:00", "contains_warning_duplicate_trip_primary_key": false }, "geometry": { "type": "LineString", "coordinates": [ [ -118.369361, 34.03472 ], [ -118.369535, 34.034612 ], [ -118.369709, 34.034505 ], [ -118.369852, 34.034436 ], [ -118.370042, 34.034349 ], [ -118.370232, 34.034262 ], [ -118.370421, 34.034174 ], [ -118.37061, 34.034085 ], [ -118.370666, 34.034059 ], [ -118.37086, 34.033978 ], [ -118.371053, 34.033896 ], [ -118.371247, 34.033815 ], [ -118.37144, 34.033734 ], [ -118.371634, 34.033652 ], [ -118.371826, 34.033569 ], [ -118.372019, 34.033486 ], [ -118.372211, 34.033403 ], [ -118.372329, 34.033353 ], [ -118.372522, 34.033271 ], [ -118.372716, 34.03319 ], [ -118.372909, 34.033108 ], [ -118.373103, 34.033027 ], [ -118.373178, 34.032995 ], [ -118.373393, 34.032969 ], [ -118.37355, 34.03295 ], [ -118.37351, 34.03286 ], [ -118.373645, 34.0328 ], [ -118.37378, 34.03274 ], [ -118.373885, 34.032695 ], [ -118.37399, 34.03265 ], [ -118.374175, 34.032575 ], [ -118.37436, 34.0325 ], [ -118.37453, 34.032425 ], [ -118.3747, 34.03235 ], [ -118.37481, 34.03231 ], [ -118.37496, 34.03225 ], [ -118.374962, 34.032348 ], [ -118.37496, 34.03225 ], [ -118.37514, 34.03218 ], [ -118.37521, 34.03219 ], [ -118.37523, 34.03219 ], [ -118.37531, 34.03216 ], [ -118.37544, 34.03211 ], [ -118.37557, 34.03206 ], [ -118.37561, 34.03204 ], [ -118.37566, 34.03202 ], [ -118.37573, 34.032 ], [ -118.37578, 34.03198 ], [ -118.37583, 34.03197 ], [ -118.376, 34.03192 ], [ -118.37617, 34.03187 ], [ -118.37634, 34.03183 ], [ -118.37651, 34.03179 ], [ -118.376634, 34.031756 ], [ -118.376758, 34.031723 ], [ -118.376881, 34.031689 ], [ -118.377005, 34.031655 ], [ -118.377129, 34.031621 ], [ -118.377253, 34.031588 ], [ -118.377376, 34.031554 ], [ -118.3775, 34.03152 ], [ -118.377675, 34.031475 ], [ -118.37785, 34.03143 ], [ -118.377968, 34.031398 ], [ -118.378085, 34.031365 ], [ -118.378203, 34.031333 ], [ -118.37832, 34.0313 ], [ -118.37853, 34.03125 ], [ -118.37873, 34.03119 ], [ -118.37886, 34.03116 ], [ -118.379045, 34.03111 ], [ -118.37923, 34.03106 ], [ -118.379422, 34.031053 ], [ -118.379616, 34.030973 ], [ -118.37976, 34.030914 ], [ -118.379966, 34.030858 ], [ -118.380141, 34.03081 ], [ -118.380347, 34.030753 ], [ -118.380461, 34.030721 ], [ -118.380669, 34.030669 ], [ -118.380793, 34.030644 ], [ -118.380917, 34.030618 ], [ -118.38104, 34.030593 ], [ -118.381164, 34.030568 ], [ -118.381288, 34.030542 ], [ -118.381412, 34.030517 ], [ -118.381535, 34.030491 ], [ -118.381659, 34.030466 ], [ -118.381775, 34.030423 ], [ -118.381891, 34.03038 ], [ -118.382007, 34.030337 ], [ -118.382123, 34.030294 ], [ -118.382262, 34.030258 ], [ -118.382401, 34.030222 ], [ -118.38254, 34.030186 ], [ -118.382679, 34.03015 ], [ -118.382817, 34.030114 ], [ -118.382956, 34.030078 ], [ -118.383095, 34.030041 ], [ -118.383234, 34.030005 ], [ -118.383381, 34.02996 ], [ -118.383529, 34.029914 ], [ -118.383676, 34.029869 ], [ -118.383824, 34.029823 ], [ -118.383978, 34.029772 ], [ -118.384132, 34.02972 ], [ -118.38408, 34.02965 ], [ -118.38411, 34.02964 ], [ -118.38418, 34.02959 ], [ -118.38429, 34.02952 ], [ -118.38445, 34.02945 ], [ -118.38462, 34.02935 ], [ -118.38475, 34.02927 ], [ -118.3849, 34.02918 ], [ -118.38509, 34.02907 ], [ -118.38524, 34.02897 ], [ -118.38536, 34.02889 ], [ -118.38544, 34.02884 ], [ -118.38554, 34.02878 ], [ -118.38562, 34.02874 ], [ -118.38571, 34.02868 ], [ -118.38576, 34.02865 ], [ -118.38588, 34.02859 ], [ -118.38602, 34.02851 ], [ -118.38615, 34.02843 ], [ -118.38626, 34.02837 ], [ -118.38637, 34.02831 ], [ -118.38647, 34.02824 ], [ -118.38657, 34.02817 ], [ -118.386695, 34.02809 ], [ -118.38682, 34.02801 ], [ -118.386935, 34.02795 ], [ -118.38705, 34.02789 ], [ -118.38715, 34.02781 ], [ -118.38722, 34.02777 ], [ -118.38731, 34.02772 ], [ -118.3874, 34.02766 ], [ -118.38754, 34.02758 ], [ -118.387604, 34.027688 ], [ -118.38754, 34.02758 ], [ -118.38766, 34.02749 ], [ -118.38772, 34.02747 ], [ -118.38776, 34.02744 ], [ -118.38794, 34.02733 ], [ -118.38801, 34.02729 ], [ -118.38814, 34.0272 ], [ -118.3882, 34.02717 ], [ -118.38824, 34.02715 ], [ -118.38828, 34.02712 ], [ -118.38842, 34.02705 ], [ -118.38856, 34.02698 ], [ -118.38864, 34.02693 ], [ -118.388746, 34.026869 ], [ -118.388853, 34.026808 ], [ -118.388959, 34.026746 ], [ -118.389065, 34.026685 ], [ -118.389171, 34.026624 ], [ -118.389278, 34.026563 ], [ -118.389384, 34.026501 ], [ -118.38949, 34.02644 ], [ -118.38956, 34.0264 ], [ -118.389705, 34.02631 ], [ -118.38985, 34.02622 ], [ -118.389975, 34.026145 ], [ -118.3901, 34.02607 ], [ -118.39029, 34.02596 ], [ -118.3904, 34.02589 ], [ -118.39053, 34.02582 ], [ -118.390662, 34.025813 ], [ -118.390822, 34.025692 ], [ -118.390946, 34.025598 ], [ -118.391119, 34.025489 ], [ -118.391262, 34.0254 ], [ -118.391406, 34.025311 ], [ -118.391549, 34.025222 ], [ -118.391692, 34.025133 ], [ -118.39184, 34.025095 ], [ -118.391988, 34.025056 ], [ -118.39194, 34.02497 ], [ -118.392075, 34.024895 ], [ -118.39221, 34.02482 ], [ -118.39229, 34.02477 ], [ -118.39236, 34.02473 ], [ -118.39245, 34.02466 ], [ -118.39249, 34.02465 ], [ -118.39253, 34.02465 ], [ -118.39257, 34.02467 ], [ -118.39266, 34.0247 ], [ -118.39272, 34.02473 ], [ -118.39276, 34.02475 ], [ -118.3928, 34.02476 ], [ -118.39284, 34.02479 ], [ -118.39288, 34.02482 ], [ -118.39297, 34.02488 ], [ -118.39307, 34.02494 ], [ -118.39312, 34.02497 ], [ -118.39325, 34.025065 ], [ -118.39338, 34.02516 ], [ -118.39345, 34.02529 ], [ -118.39357, 34.02514 ], [ -118.39366, 34.02503 ], [ -118.39373, 34.02494 ], [ -118.39385, 34.02479 ], [ -118.393955, 34.024665 ], [ -118.39406, 34.02454 ], [ -118.39413, 34.02445 ], [ -118.3942, 34.02436 ], [ -118.39425, 34.02431 ], [ -118.39432, 34.02424 ], [ -118.39441, 34.02412 ], [ -118.39447, 34.02404 ], [ -118.394502, 34.024061 ], [ -118.39447, 34.02404 ], [ -118.394545, 34.02395 ], [ -118.39462, 34.02386 ], [ -118.394695, 34.02377 ], [ -118.39477, 34.02368 ], [ -118.39481, 34.02362 ], [ -118.39489, 34.02349 ], [ -118.39496, 34.0234 ], [ -118.39502, 34.02332 ], [ -118.39507, 34.02326 ], [ -118.39516, 34.02315 ], [ -118.39525, 34.02303 ], [ -118.39537, 34.02299 ], [ -118.39539, 34.02298 ], [ -118.39542, 34.02296 ], [ -118.39545, 34.02294 ], [ -118.39552, 34.02289 ], [ -118.39555, 34.02288 ], [ -118.39567, 34.02279 ], [ -118.39575, 34.02275 ], [ -118.39589, 34.02267 ], [ -118.39607, 34.02255 ], [ -118.39614, 34.02251 ], [ -118.396255, 34.022443 ], [ -118.39637, 34.022375 ], [ -118.396485, 34.022308 ], [ -118.3966, 34.02224 ], [ -118.3967, 34.02218 ], [ -118.3968, 34.02212 ], [ -118.3969, 34.02206 ], [ -118.397, 34.022 ], [ -118.3971, 34.02194 ], [ -118.39723, 34.021865 ], [ -118.39736, 34.02179 ], [ -118.397405, 34.021841 ], [ -118.39736, 34.02179 ], [ -118.39749, 34.02171 ], [ -118.39763, 34.02159 ], [ -118.39782, 34.02148 ], [ -118.39801, 34.02137 ], [ -118.398125, 34.021305 ], [ -118.39824, 34.02124 ], [ -118.398395, 34.021145 ], [ -118.39855, 34.02105 ], [ -118.39867, 34.02097 ], [ -118.398853, 34.020976 ], [ -118.398991, 34.020838 ], [ -118.39913, 34.020699 ], [ -118.399304, 34.020591 ], [ -118.399479, 34.020485 ], [ -118.399561, 34.020436 ], [ -118.399739, 34.020333 ], [ -118.399917, 34.02023 ], [ -118.400113, 34.020153 ], [ -118.400309, 34.020076 ], [ -118.400346, 34.020062 ], [ -118.400498, 34.019933 ], [ -118.400649, 34.019805 ], [ -118.400826, 34.019701 ], [ -118.400966, 34.01962 ], [ -118.40114, 34.019513 ], [ -118.401208, 34.019471 ], [ -118.401383, 34.019364 ], [ -118.401557, 34.019257 ], [ -118.401732, 34.019151 ], [ -118.401826, 34.019093 ], [ -118.402001, 34.018987 ], [ -118.402176, 34.018881 ], [ -118.402351, 34.018774 ], [ -118.402527, 34.018668 ], [ -118.402705, 34.018566 ], [ -118.402883, 34.018463 ], [ -118.403061, 34.01836 ], [ -118.403239, 34.018258 ], [ -118.403418, 34.018155 ], [ -118.40355, 34.018079 ], [ -118.403728, 34.017976 ], [ -118.40388, 34.017889 ], [ -118.404052, 34.017779 ], [ -118.404224, 34.017669 ], [ -118.4044, 34.017565 ], [ -118.40457, 34.017465 ], [ -118.404747, 34.017361 ], [ -118.404923, 34.017256 ], [ -118.405116, 34.017174 ], [ -118.405309, 34.017092 ], [ -118.40533, 34.017083 ], [ -118.405495, 34.016967 ], [ -118.405654, 34.016855 ], [ -118.405798, 34.01672 ], [ -118.405942, 34.016586 ], [ -118.40608, 34.016457 ], [ -118.406122, 34.01642 ], [ -118.406263, 34.016283 ], [ -118.406386, 34.016164 ], [ -118.406551, 34.016047 ], [ -118.406664, 34.015967 ], [ -118.406786, 34.015818 ], [ -118.406907, 34.015669 ], [ -118.40705, 34.015534 ], [ -118.407117, 34.01547 ], [ -118.407184, 34.015411 ], [ -118.407234, 34.015367 ], [ -118.407382, 34.015235 ], [ -118.407529, 34.015103 ], [ -118.407677, 34.014971 ], [ -118.407771, 34.014887 ], [ -118.407918, 34.014755 ], [ -118.408066, 34.014623 ], [ -118.40817, 34.01453 ], [ -118.408308, 34.014402 ], [ -118.408453, 34.014268 ], [ -118.408598, 34.014134 ], [ -118.408742, 34.014 ], [ -118.408868, 34.013884 ], [ -118.409003, 34.013743 ], [ -118.409123, 34.013617 ], [ -118.409222, 34.013519 ], [ -118.409403, 34.01342 ], [ -118.409509, 34.013363 ], [ -118.409626, 34.013212 ], [ -118.409731, 34.013077 ], [ -118.409843, 34.012923 ], [ -118.409943, 34.012763 ], [ -118.410014, 34.012651 ], [ -118.410133, 34.012501 ], [ -118.410252, 34.01235 ], [ -118.410261, 34.012339 ], [ -118.410322, 34.012166 ], [ -118.410384, 34.011994 ], [ -118.410475, 34.011831 ], [ -118.410549, 34.011699 ], [ -118.41059, 34.011627 ], [ -118.410682, 34.011464 ], [ -118.410774, 34.011301 ], [ -118.410867, 34.011139 ], [ -118.410888, 34.011101 ], [ -118.41098, 34.010938 ], [ -118.41105, 34.010814 ], [ -118.411143, 34.010651 ], [ -118.411197, 34.010557 ], [ -118.411265, 34.01044 ], [ -118.411357, 34.010277 ], [ -118.411403, 34.010197 ], [ -118.411438, 34.010138 ], [ -118.411527, 34.009974 ], [ -118.411615, 34.00981 ], [ -118.411727, 34.009655 ], [ -118.411808, 34.009543 ], [ -118.411882, 34.009374 ], [ -118.411956, 34.009205 ], [ -118.411984, 34.009142 ], [ -118.412077, 34.00898 ], [ -118.412171, 34.008817 ], [ -118.412214, 34.008743 ], [ -118.412304, 34.008579 ], [ -118.412385, 34.008434 ], [ -118.412476, 34.008271 ], [ -118.412567, 34.008107 ], [ -118.412658, 34.007944 ], [ -118.412749, 34.007781 ], [ -118.412844, 34.007619 ], [ -118.412939, 34.007458 ], [ -118.412963, 34.007417 ], [ -118.413042, 34.007269 ], [ -118.413074, 34.007207 ], [ -118.41319, 34.007055 ], [ -118.41326, 34.006963 ], [ -118.413329, 34.006793 ], [ -118.413398, 34.006622 ], [ -118.413426, 34.006554 ], [ -118.413516, 34.00639 ], [ -118.413568, 34.006297 ], [ -118.413593, 34.006254 ], [ -118.413614, 34.006214 ], [ -118.413671, 34.006107 ], [ -118.413726, 34.006003 ], [ -118.413758, 34.005942 ], [ -118.413845, 34.005777 ], [ -118.413865, 34.005738 ], [ -118.413951, 34.005573 ], [ -118.413991, 34.005504 ], [ -118.414078, 34.005339 ], [ -118.414166, 34.005175 ], [ -118.414253, 34.00501 ], [ -118.414288, 34.004945 ], [ -118.414376, 34.00478 ], [ -118.414435, 34.004669 ], [ -118.414522, 34.004504 ], [ -118.41461, 34.00434 ], [ -118.414644, 34.004275 ], [ -118.414781, 34.004135 ], [ -118.414855, 34.004059 ], [ -118.414907, 34.003884 ], [ -118.414959, 34.00371 ], [ -118.414975, 34.003655 ], [ -118.415065, 34.003491 ], [ -118.415091, 34.003445 ], [ -118.415165, 34.003311 ], [ -118.415254, 34.003147 ], [ -118.415344, 34.002983 ], [ -118.415433, 34.002819 ], [ -118.415522, 34.002655 ], [ -118.415565, 34.002577 ], [ -118.415655, 34.002413 ], [ -118.415744, 34.002249 ], [ -118.415799, 34.00215 ], [ -118.415891, 34.001987 ], [ -118.41595, 34.001883 ], [ -118.416038, 34.001718 ], [ -118.416125, 34.001554 ], [ -118.416213, 34.001389 ], [ -118.416241, 34.001336 ], [ -118.416382, 34.001199 ], [ -118.416463, 34.001121 ], [ -118.416509, 34.000945 ], [ -118.416539, 34.000829 ], [ -118.416609, 34.000756 ], [ -118.416688, 34.000685 ], [ -118.416855, 34.000571 ], [ -118.416938, 34.000514 ], [ -118.417113, 34.000407 ], [ -118.417287, 34.000301 ], [ -118.417462, 34.000194 ], [ -118.417637, 34.000087 ], [ -118.417761, 34.000007 ], [ -118.417929, 33.999893 ], [ -118.418041, 33.999817 ], [ -118.418235, 33.999736 ], [ -118.418411, 33.999663 ], [ -118.418515, 33.999505 ], [ -118.418606, 33.999368 ], [ -118.418727, 33.999218 ], [ -118.418848, 33.999069 ], [ -118.418963, 33.998917 ], [ -118.419087, 33.998769 ], [ -118.419211, 33.998622 ], [ -118.419335, 33.998474 ], [ -118.419402, 33.998395 ], [ -118.419507, 33.99829 ], [ -118.419664, 33.998166 ], [ -118.419847, 33.998069 ], [ -118.420049, 33.998004 ], [ -118.420258, 33.997956 ], [ -118.420312, 33.997944 ], [ -118.420527, 33.99792 ], [ -118.420742, 33.997895 ], [ -118.420957, 33.997871 ], [ -118.421172, 33.997846 ], [ -118.421387, 33.997822 ], [ -118.421602, 33.997798 ], [ -118.421817, 33.997773 ], [ -118.422031, 33.997748 ], [ -118.422205, 33.997728 ], [ -118.422422, 33.997725 ], [ -118.422639, 33.997721 ], [ -118.422726, 33.99772 ], [ -118.422935, 33.997672 ], [ -118.423144, 33.997624 ], [ -118.423359, 33.997599 ], [ -118.423574, 33.997574 ], [ -118.423789, 33.99755 ], [ -118.424004, 33.997526 ], [ -118.424219, 33.997502 ], [ -118.42432, 33.997491 ], [ -118.424535, 33.997467 ], [ -118.42475, 33.997443 ], [ -118.424965, 33.997419 ], [ -118.42518, 33.997395 ], [ -118.425395, 33.99737 ], [ -118.425461, 33.997363 ], [ -118.425678, 33.997373 ], [ -118.425825, 33.99738 ], [ -118.426033, 33.997329 ], [ -118.426241, 33.997278 ], [ -118.426456, 33.997253 ], [ -118.426671, 33.997227 ], [ -118.426886, 33.997203 ], [ -118.427101, 33.997179 ], [ -118.427154, 33.997172 ], [ -118.427369, 33.99715 ], [ -118.427585, 33.997129 ], [ -118.4278, 33.997107 ], [ -118.428016, 33.997086 ], [ -118.428231, 33.997064 ], [ -118.428446, 33.997043 ], [ -118.42853, 33.997035 ], [ -118.428595, 33.997028 ], [ -118.428812, 33.997039 ], [ -118.429028, 33.997049 ], [ -118.429047, 33.99705 ], [ -118.429256, 33.997 ], [ -118.429464, 33.996951 ], [ -118.42968, 33.996933 ], [ -118.429896, 33.996919 ], [ -118.430112, 33.996904 ], [ -118.430329, 33.996899 ], [ -118.430435, 33.996897 ], [ -118.430652, 33.996888 ], [ -118.43076, 33.996883 ], [ -118.430976, 33.996868 ], [ -118.431162, 33.996855 ], [ -118.431379, 33.996849 ], [ -118.431596, 33.996842 ], [ -118.431763, 33.996837 ], [ -118.431944, 33.996821 ], [ -118.432161, 33.996821 ], [ -118.432253, 33.996821 ], [ -118.43247, 33.996823 ], [ -118.432639, 33.996825 ], [ -118.432856, 33.996834 ], [ -118.432914, 33.996837 ], [ -118.433035, 33.996853 ], [ -118.43325, 33.996879 ], [ -118.43333, 33.996889 ], [ -118.433546, 33.996903 ], [ -118.433763, 33.996916 ], [ -118.433975, 33.996954 ], [ -118.434187, 33.996993 ], [ -118.434209, 33.996997 ], [ -118.434425, 33.996981 ], [ -118.434641, 33.996965 ], [ -118.434701, 33.996961 ], [ -118.434797, 33.996957 ], [ -118.435007, 33.996912 ], [ -118.435163, 33.996879 ], [ -118.435346, 33.996807 ], [ -118.435506, 33.996727 ], [ -118.435681, 33.996621 ], [ -118.435795, 33.996551 ], [ -118.435962, 33.996437 ], [ -118.436065, 33.996375 ], [ -118.436268, 33.996311 ], [ -118.436471, 33.996248 ], [ -118.436495, 33.99624 ], [ -118.436666, 33.99613 ], [ -118.436838, 33.99602 ], [ -118.437025, 33.995928 ], [ -118.437212, 33.995838 ], [ -118.4374, 33.995748 ], [ -118.437461, 33.995718 ], [ -118.437645, 33.995622 ], [ -118.437828, 33.995526 ], [ -118.438027, 33.995454 ], [ -118.438143, 33.995412 ], [ -118.438311, 33.995298 ], [ -118.438433, 33.995215 ], [ -118.438619, 33.995122 ], [ -118.438804, 33.995029 ], [ -118.43899, 33.994936 ], [ -118.439061, 33.994901 ], [ -118.439245, 33.994806 ], [ -118.43943, 33.994712 ], [ -118.439615, 33.994617 ], [ -118.439799, 33.994523 ], [ -118.439877, 33.994483 ], [ -118.440063, 33.99439 ], [ -118.440248, 33.994296 ], [ -118.440433, 33.994203 ], [ -118.440618, 33.994109 ], [ -118.440684, 33.994076 ], [ -118.440868, 33.993981 ], [ -118.441052, 33.993886 ], [ -118.441236, 33.99379 ], [ -118.44142, 33.993695 ], [ -118.441525, 33.993641 ], [ -118.441711, 33.993549 ], [ -118.441898, 33.993457 ], [ -118.442084, 33.993365 ], [ -118.44227, 33.993272 ], [ -118.442479, 33.993223 ], [ -118.442619, 33.99319 ], [ -118.442775, 33.993065 ], [ -118.442932, 33.992941 ], [ -118.443116, 33.992845 ], [ -118.443301, 33.992752 ], [ -118.443487, 33.992659 ], [ -118.443672, 33.992566 ], [ -118.443858, 33.992473 ], [ -118.444044, 33.99238 ], [ -118.44423, 33.992288 ], [ -118.44429, 33.992257 ], [ -118.444475, 33.992163 ], [ -118.444661, 33.99207 ], [ -118.444801, 33.991999 ], [ -118.444987, 33.991907 ], [ -118.445173, 33.991814 ], [ -118.445359, 33.991722 ], [ -118.445563, 33.991659 ], [ -118.445775, 33.991593 ], [ -118.445938, 33.991474 ], [ -118.4461, 33.991355 ], [ -118.446286, 33.991262 ], [ -118.446473, 33.99117 ], [ -118.446658, 33.991077 ], [ -118.446845, 33.990985 ], [ -118.447031, 33.990893 ], [ -118.447198, 33.99081 ], [ -118.447383, 33.990716 ], [ -118.447568, 33.990622 ], [ -118.447753, 33.990528 ], [ -118.447801, 33.990504 ], [ -118.447913, 33.990447 ], [ -118.448094, 33.990348 ], [ -118.448303, 33.9903 ], [ -118.448435, 33.990269 ], [ -118.448591, 33.990144 ], [ -118.448747, 33.990019 ], [ -118.448932, 33.989925 ], [ -118.449049, 33.989867 ], [ -118.449236, 33.989776 ], [ -118.449423, 33.989685 ], [ -118.449611, 33.989594 ], [ -118.449798, 33.989503 ], [ -118.449848, 33.989479 ], [ -118.450033, 33.989386 ], [ -118.450219, 33.989292 ], [ -118.450404, 33.989199 ], [ -118.45059, 33.989106 ], [ -118.450775, 33.989013 ], [ -118.450961, 33.98892 ], [ -118.451147, 33.988827 ], [ -118.451333, 33.988734 ], [ -118.451518, 33.988641 ], [ -118.451575, 33.988612 ], [ -118.451756, 33.988512 ], [ -118.451936, 33.988413 ], [ -118.452117, 33.988313 ], [ -118.452178, 33.988279 ], [ -118.452366, 33.988189 ], [ -118.452554, 33.988099 ], [ -118.452592, 33.988081 ], [ -118.452743, 33.987952 ], [ -118.452876, 33.987837 ], [ -118.45305, 33.98773 ], [ -118.453224, 33.987623 ], [ -118.453398, 33.987515 ], [ -118.453573, 33.987408 ], [ -118.453747, 33.987301 ], [ -118.453921, 33.987194 ], [ -118.454095, 33.987086 ], [ -118.454269, 33.986979 ], [ -118.454443, 33.986872 ], [ -118.454636, 33.986789 ], [ -118.454788, 33.986723 ], [ -118.454941, 33.986595 ], [ -118.455029, 33.986521 ], [ -118.455103, 33.986479 ], [ -118.455235, 33.986397 ], [ -118.455406, 33.986287 ], [ -118.455578, 33.986176 ], [ -118.455749, 33.986066 ], [ -118.45592, 33.985956 ], [ -118.456092, 33.985846 ], [ -118.456263, 33.985735 ], [ -118.456434, 33.985625 ], [ -118.456606, 33.985515 ], [ -118.456777, 33.985404 ], [ -118.456948, 33.985293 ], [ -118.457136, 33.985204 ], [ -118.457325, 33.985115 ], [ -118.457357, 33.9851 ], [ -118.457502, 33.984966 ], [ -118.457619, 33.984859 ], [ -118.457791, 33.98475 ], [ -118.457963, 33.98464 ], [ -118.458135, 33.984531 ], [ -118.458307, 33.984421 ], [ -118.458479, 33.984311 ], [ -118.458651, 33.984202 ], [ -118.458715, 33.984161 ], [ -118.458886, 33.98405 ], [ -118.458984, 33.983987 ], [ -118.459157, 33.983879 ], [ -118.459331, 33.983771 ], [ -118.459504, 33.983663 ], [ -118.459678, 33.983555 ], [ -118.459851, 33.983447 ], [ -118.460025, 33.983339 ], [ -118.460198, 33.983231 ], [ -118.460325, 33.983152 ], [ -118.460473, 33.983056 ], [ -118.460644, 33.982945 ], [ -118.460815, 33.982834 ], [ -118.460989, 33.982727 ], [ -118.461175, 33.982635 ], [ -118.461357, 33.982544 ], [ -118.461516, 33.982422 ], [ -118.461675, 33.982299 ], [ -118.461732, 33.982255 ], [ -118.461904, 33.982146 ], [ -118.462074, 33.982034 ], [ -118.462245, 33.981923 ], [ -118.462297, 33.981889 ], [ -118.462469, 33.981779 ], [ -118.462641, 33.981669 ], [ -118.462727, 33.981614 ], [ -118.462899, 33.981505 ], [ -118.463072, 33.981396 ], [ -118.463265, 33.981314 ], [ -118.463439, 33.981239 ], [ -118.463583, 33.981104 ], [ -118.463703, 33.980992 ], [ -118.463873, 33.98088 ], [ -118.464042, 33.980768 ], [ -118.464187, 33.980673 ], [ -118.464363, 33.980568 ], [ -118.464538, 33.980461 ], [ -118.464661, 33.980387 ], [ -118.464739, 33.980339 ], [ -118.464811, 33.980292 ], [ -118.465006, 33.980214 ], [ -118.465202, 33.980136 ], [ -118.465281, 33.980104 ], [ -118.465429, 33.979973 ], [ -118.465577, 33.979841 ], [ -118.465637, 33.979788 ], [ -118.465777, 33.979925 ], [ -118.465874, 33.980019 ], [ -118.465987, 33.980173 ], [ -118.466073, 33.98029 ], [ -118.466196, 33.980438 ], [ -118.466289, 33.980549 ], [ -118.466419, 33.980693 ], [ -118.466537, 33.980825 ], [ -118.466665, 33.98097 ], [ -118.466764, 33.981084 ], [ -118.466893, 33.981229 ], [ -118.466992, 33.981341 ], [ -118.467118, 33.981487 ], [ -118.46721, 33.981594 ], [ -118.467335, 33.981741 ], [ -118.467443, 33.981867 ], [ -118.467571, 33.982012 ], [ -118.467666, 33.982121 ], [ -118.467797, 33.982264 ], [ -118.467893, 33.982369 ], [ -118.468021, 33.982514 ], [ -118.468122, 33.982628 ], [ -118.468249, 33.982774 ], [ -118.468345, 33.982885 ], [ -118.468469, 33.983033 ], [ -118.468561, 33.983143 ], [ -118.468687, 33.983289 ], [ -118.468792, 33.983411 ], [ -118.468916, 33.983559 ], [ -118.469005, 33.983666 ], [ -118.469124, 33.983816 ], [ -118.469228, 33.983948 ], [ -118.469347, 33.984098 ], [ -118.46944, 33.984215 ], [ -118.469496, 33.984297 ], [ -118.469604, 33.984453 ], [ -118.469634, 33.984497 ], [ -118.469718, 33.984663 ], [ -118.469793, 33.984812 ], [ -118.46995, 33.984936 ], [ -118.470071, 33.985032 ], [ -118.470191, 33.985182 ], [ -118.470292, 33.985307 ], [ -118.470417, 33.985454 ], [ -118.470511, 33.985565 ], [ -118.470631, 33.985715 ], [ -118.470726, 33.985832 ], [ -118.470845, 33.985982 ], [ -118.470942, 33.986105 ], [ -118.471061, 33.986256 ], [ -118.471158, 33.986379 ], [ -118.47128, 33.986528 ], [ -118.471374, 33.986642 ], [ -118.471446, 33.986731 ], [ -118.471567, 33.98688 ], [ -118.471694, 33.987026 ], [ -118.471801, 33.987147 ], [ -118.471899, 33.987265 ], [ -118.471934, 33.987304 ], [ -118.471997, 33.987376 ], [ -118.472057, 33.987446 ], [ -118.472179, 33.987595 ], [ -118.472254, 33.9877 ], [ -118.472069, 33.987794 ], [ -118.472016, 33.987821 ], [ -118.471812, 33.987881 ], [ -118.471607, 33.987942 ], [ -118.471525, 33.987966 ] ] } }
]
}
