{
"type": "FeatureCollection",
"name": "signals_nearby",
"crs": { "type": "name", "properties": { "name": "urn:ogc:def:crs:OGC:1.3:CRS84" } },
"features": [
{ "type": "Feature", "properties": { "id": 1, "name": "Washington Blvd + Costco Dwy", "distance_along_shape": 9287.697753918439 }, "geometry": { "type": "Point", "coordinates": [ -118.44624, 33.991286 ] } },
{ "type": "Feature", "properties": { "id": 2, "name": "Washington Blvd + Glencoe Ave / Costco Dwy", "distance_along_shape": 9131.1215651034036 }, "geometry": { "type": "Point", "coordinates": [ -118.444765, 33.991959 ] } },
{ "type": "Feature", "properties": { "id": 3, "name": "Washington Blvd + Redwood Ave", "distance_along_shape": 8862.8191261509783 }, "geometry": { "type": "Point", "coordinates": [ -118.442316, 33.993192 ] } },
{ "type": "Feature", "properties": { "id": 4, "name": "Washington Blvd + Beethoven St", "distance_along_shape": 8422.6016303467659 }, "geometry": { "type": "Point", "coordinates": [ -118.438218, 33.995264 ] } },
{ "type": "Feature", "properties": { "id": 5, "name": "Washington Blvd + Rosabell St", "distance_along_shape": 8185.671757508665 }, "geometry": { "type": "Point", "coordinates": [ -118.436028, 33.996338 ] } },
{ "type": "Feature", "properties": { "id": 9, "name": "Washington Blvd + Centinela Ave", "distance_along_shape": 7463.6349254667584 }, "geometry": { "type": "Point", "coordinates": [ -118.428479, 33.996971 ] } },
{ "type": "Feature", "properties": { "id": 10, "name": "Washington Blvd + Grand View Blvd", "distance_along_shape": 7180.8160310295925 }, "geometry": { "type": "Point", "coordinates": [ -118.42547, 33.997268 ] } },
{ "type": "Feature", "properties": { "id": 11, "name": "Washington Blvd + Inglewood Blvd", "distance_along_shape": 6867.9791986960181 }, "geometry": { "type": "Point", "coordinates": [ -118.422104, 33.997671 ] } },
{ "type": "Feature", "properties": { "id": 12, "name": "Washington Blvd + Berryman Ave", "distance_along_shape": 6149.7411632689991 }, "geometry": { "type": "Point", "coordinates": [ -118.416198, 34.001319 ] } },
{ "type": "Feature", "properties": { "id": 15, "name": "Washington Blvd + Sawtelle Blvd", "distance_along_shape": 5793.2864559606951 }, "geometry": { "type": "Point", "coordinates": [ -118.414663, 34.004251 ] } },
{ "type": "Feature", "properties": { "id": 20, "name": "Washington Blvd + Washington Pl / Harter Ave / Tilden Ave", "distance_along_shape": 5074.7360924171162 }, "geometry": { "type": "Point", "coordinates": [ -118.411592, 34.010194 ] } },
{ "type": "Feature", "properties": { "id": 21, "name": "Washington Blvd + Sepulveda Blvd", "distance_along_shape": 5431.0068308565724 }, "geometry": { "type": "Point", "coordinates": [ -118.413007, 34.007207 ] } },
{ "type": "Feature", "properties": { "id": 28, "name": "Culver Blvd + Elenda St", "distance_along_shape": 4591.343442629799 }, "geometry": { "type": "Point", "coordinates": [ -118.408852, 34.013857 ] } },
{ "type": "Feature", "properties": { "id": 30, "name": "Washington Blvd + Overland Ave", "distance_along_shape": 4251.193326287781 }, "geometry": { "type": "Point", "coordinates": [ -118.406384, 34.016116 ] } },
{ "type": "Feature", "properties": { "id": 31, "name": "Sony Entrance + Overland Ave / Palm Ct", "distance_along_shape": 4132.5399140607951 }, "geometry": { "type": "Point", "coordinates": [ -118.405478, 34.016865 ] } },
{ "type": "Feature", "properties": { "id": 39, "name": "Washington Blvd + Jasmine Ave", "distance_along_shape": 3794.0414484273419 }, "geometry": { "type": "Point", "coordinates": [ -118.402535, 34.018663 ] } },
{ "type": "Feature", "properties": { "id": 40, "name": "Washington Blvd + Clarington Ave / Madison Ave", "distance_along_shape": 3559.6832795495484 }, "geometry": { "type": "Point", "coordinates": [ -118.400477, 34.019904 ] } },
{ "type": "Feature", "properties": { "id": 41, "name": "Washington Blvd + Duquesne Ave / Hughes Ave", "distance_along_shape": 3385.8262409692989 }, "geometry": { "type": "Point", "coordinates": [ -118.398941, 34.020799 ] } },
{ "type": "Feature", "properties": { "id": 42, "name": "Culver Blvd + Duquesne Ave", "distance_along_shape": 3214.3906662021168 }, "geometry": { "type": "Point", "coordinates": [ -118.397488, 34.021677 ] } },
{ "type": "Feature", "properties": { "id": 46, "name": "Culver Blvd + Main St/Washington Bl", "distance_along_shape": 2886.2732017942408 }, "geometry": { "type": "Point", "coordinates": [ -118.394834, 34.023423 ] } },
{ "type": "Feature", "properties": { "id": 47, "name": "Culver Blvd + Canfield Ave / Washington Blvd", "distance_along_shape": 2753.347438112135 }, "geometry": { "type": "Point", "coordinates": [ -118.394129, 34.024387 ] } },
{ "type": "Feature", "properties": { "id": 48, "name": "Washington Blvd + Ince Blvd", "distance_along_shape": 2628.0767278283161 }, "geometry": { "type": "Point", "coordinates": [ -118.393418, 34.025232 ] } },
{ "type": "Feature", "properties": { "id": 49, "name": "Washington Blvd + Robertson Bl/Higuera St", "distance_along_shape": 2519.351023970205 }, "geometry": { "type": "Point", "coordinates": [ -118.392503, 34.02464 ] } },
{ "type": "Feature", "properties": { "id": 50, "name": "Higuera St + Eastham Dr", "distance_along_shape": 2252.2565754206439 }, "geometry": { "type": "Point", "coordinates": [ -118.390258, 34.025979 ] } },
{ "type": "Feature", "properties": { "id": 55, "name": "Washington Blvd + Helms Ave", "distance_along_shape": 1804.7318371566766 }, "geometry": { "type": "Point", "coordinates": [ -118.386566, 34.028189 ] } },
{ "type": "Feature", "properties": { "id": 56, "name": "Washington Blvd + La Cienaga Ave / McManus Ave", "distance_along_shape": 1497.1010123498045 }, "geometry": { "type": "Point", "coordinates": [ -118.383943, 34.029741 ] } },
{ "type": "Feature", "properties": { "id": 57, "name": "Washington Blvd + La Cienaga Blvd", "distance_along_shape": 1018.8759658275583 }, "geometry": { "type": "Point", "coordinates": [ -118.379046, 34.03109 ] } },
{ "type": "Feature", "properties": { "id": 58, "name": "Washington Blvd + Adams Blvd / Comey Ave", "distance_along_shape": 533.03261662715238 }, "geometry": { "type": "Point", "coordinates": [ -118.374335, 34.032498 ] } },
{ "type": "Feature", "properties": { "id": 59, "name": "Centinela Ave + Green Valley Cir", "distance_along_shape": 400.49913090918437 }, "geometry": { "type": "Point", "coordinates": [ -118.37316, 34.032987 ] } },
{ "type": "Feature", "properties": { "id": 100, "name": "Culver Blvd + I-405 NB On Off Ramps", "distance_along_shape": 2014.4258143535717 }, "geometry": { "type": "Point", "coordinates": [ -118.388146, 34.027204 ] } },
{ "type": "Feature", "properties": { "id": 105, "name": "Jefferson Blvd + Hetzler Rd (New)", "distance_along_shape": 6359.3012704502598 }, "geometry": { "type": "Point", "coordinates": [ -118.417724, 33.999976 ] } }
]
}
