{
"type": "FeatureCollection",
"name": "stops_shp-1-05",
"crs": { "type": "name", "properties": { "name": "urn:ogc:def:crs:OGC:1.3:CRS84" } },
"features": [
{ "type": "Feature", "properties": { "stop_id": "65", "stop_name": "Washington Blvd/Clarington Ave", "nearside": true }, "geometry": { "type": "Point", "coordinates": [ -118.398853, 34.020976 ] } },
{ "type": "Feature", "properties": { "stop_id": "31", "stop_name": "Washington Blvd/Culver Center" }, "geometry": { "type": "Point", "coordinates": [ -118.406076, 34.016192 ] } },
{ "type": "Feature", "properties": { "stop_id": "73", "stop_name": "Washington Blvd/Sepulveda Blvd" }, "geometry": { "type": "Point", "coordinates": [ -118.41326, 34.006963 ] } },
{ "type": "Feature", "properties": { "stop_id": "34", "stop_name": "Washington Blvd/Jasmine Ave" }, "geometry": { "type": "Point", "coordinates": [ -118.400141, 34.019983 ] } },
{ "type": "Feature", "properties": { "stop_id": "26", "stop_name": "Washington Blvd/Corinth Ave" }, "geometry": { "type": "Point", "coordinates": [ -118.414999, 34.003231 ] } },
{ "type": "Feature", "properties": { "stop_id": "54", "stop_name": "Washington Blvd/Robertson Blvd" }, "geometry": { "type": "Point", "coordinates": [ -118.390662, 34.025813 ] } },
{ "type": "Feature", "properties": { "stop_id": "70", "stop_name": "Washington Blvd/Elenda St" }, "geometry": { "type": "Point", "coordinates": [ -118.409509, 34.013363 ] } },
{ "type": "Feature", "properties": { "stop_id": "4", "stop_name": "Windward Ave/Main St" }, "geometry": { "type": "Point", "coordinates": [ -118.471525, 33.987966 ] } },
{ "type": "Feature", "properties": { "stop_id": "514", "stop_name": "Washington Blvd/Comey Ave" }, "geometry": { "type": "Point", "coordinates": [ -118.37355, 34.03295 ] } },
{ "type": "Feature", "properties": { "stop_id": "82", "stop_name": "Washington Blvd/Beethoven St", "nearside": true }, "geometry": { "type": "Point", "coordinates": [ -118.438143, 33.995412 ] } },
{ "type": "Feature", "properties": { "stop_id": "86", "stop_name": "Washington Blvd/Lincoln Blvd" }, "geometry": { "type": "Point", "coordinates": [ -118.448435, 33.990269 ] } },
{ "type": "Feature", "properties": { "stop_id": "75", "stop_name": "Washington Blvd/Sawtelle Blvd" }, "geometry": { "type": "Point", "coordinates": [ -118.414855, 34.004059 ] } },
{ "type": "Feature", "properties": { "stop_id": "44", "stop_name": "Washington Blvd/Roberts Ave" }, "geometry": { "type": "Point", "coordinates": [ -118.378119, 34.031187 ] } },
{ "type": "Feature", "properties": { "stop_id": "45", "stop_name": "Washington Blvd/Adams Blvd" }, "geometry": { "type": "Point", "coordinates": [ -118.37365, 34.032659 ] } },
{ "type": "Feature", "properties": { "stop_id": "704", "stop_name": "Washington Blvd/Ince Blvd", "nearside": true }, "geometry": { "type": "Point", "coordinates": [ -118.391988, 34.025056 ] } },
{ "type": "Feature", "properties": { "stop_id": "53", "stop_name": "E Line Culver City Station", "nearside": false }, "geometry": { "type": "Point", "coordinates": [ -118.387604, 34.027688 ] } },
{ "type": "Feature", "properties": { "stop_id": "77", "stop_name": "Washington Blvd/East Blvd" }, "geometry": { "type": "Point", "coordinates": [ -118.418411, 33.999663 ] } },
{ "type": "Feature", "properties": { "stop_id": "89", "stop_name": "Washington Blvd/Wilson Ave" }, "geometry": { "type": "Point", "coordinates": [ -118.457357, 33.9851 ] } },
{ "type": "Feature", "properties": { "stop_id": "72", "stop_name": "Washington Blvd/Harter Ave" }, "geometry": { "type": "Point", "coordinates": [ -118.411808, 34.009543 ] } },
{ "type": "Feature", "properties": { "stop_id": "90", "stop_name": "Washington Blvd/Ocean Ave" }, "geometry": { "type": "Point", "coordinates": [ -118.461357, 33.982544 ] } },
{ "type": "Feature", "properties": { "stop_id": "91", "stop_name": "Washington Blvd/Dell Ave", "nearside": true }, "geometry": { "type": "Point", "coordinates": [ -118.463439, 33.981239 ] } },
{ "type": "Feature", "properties": { "stop_id": "71", "stop_name": "Washington Blvd/Prospect Ave" }, "geometry": { "type": "Point", "coordinates": [ -118.410261, 34.012339 ] } },
{ "type": "Feature", "properties": { "stop_id": "88", "stop_name": "Washington Blvd/Oxford Ave", "nearside": true }, "geometry": { "type": "Point", "coordinates": [ -118.454788, 33.986723 ] } },
{ "type": "Feature", "properties": { "stop_id": "25", "stop_name": "Washington Blvd/Berryman Ave" }, "geometry": { "type": "Point", "coordinates": [ -118.415888, 34.001665 ] } },
{ "type": "Feature", "properties": { "stop_id": "28", "stop_name": "Washington Blvd/Harter Ave" }, "geometry": { "type": "Point", "coordinates": [ -118.411333, 34.009841 ] } },
{ "type": "Feature", "properties": { "stop_id": "85", "stop_name": "Washington Blvd/Glencoe Ave", "nearside": true }, "geometry": { "type": "Point", "coordinates": [ -118.445775, 33.991593 ] } },
{ "type": "Feature", "properties": { "stop_id": "9", "stop_name": "Washington Blvd/Palawan Way" }, "geometry": { "type": "Point", "coordinates": [ -118.458711, 33.983925 ] } },
{ "type": "Feature", "properties": { "stop_id": "39", "stop_name": "Culver Blvd/Main St" }, "geometry": { "type": "Point", "coordinates": [ -118.393725, 34.024569 ] } },
{ "type": "Feature", "properties": { "stop_id": "37", "stop_name": "Washington Blvd/Duquesne Ave" }, "geometry": { "type": "Point", "coordinates": [ -118.397624, 34.021422 ] } },
{ "type": "Feature", "properties": { "stop_id": "27", "stop_name": "Washington Blvd/Sepulveda Blvd" }, "geometry": { "type": "Point", "coordinates": [ -118.412751, 34.007336 ] } },
{ "type": "Feature", "properties": { "stop_id": "81", "stop_name": "Washington Blvd/Meier St" }, "geometry": { "type": "Point", "coordinates": [ -118.436495, 33.99624 ] } },
{ "type": "Feature", "properties": { "stop_id": "43", "stop_name": "Washington Blvd/Cattaraugus Ave" }, "geometry": { "type": "Point", "coordinates": [ -118.38079, 34.030452 ] } },
{ "type": "Feature", "properties": { "stop_id": "69", "stop_name": "Washington Blvd/Culver Center" }, "geometry": { "type": "Point", "coordinates": [ -118.406664, 34.015967 ] } },
{ "type": "Feature", "properties": { "stop_id": "48", "stop_name": "Washington Blvd/Fairfax Ave", "nearside": true }, "geometry": { "type": "Point", "coordinates": [ -118.369361, 34.03472 ] } },
{ "type": "Feature", "properties": { "stop_id": "93", "stop_name": "Pacific Ave/S Venice Blvd", "nearside": true }, "geometry": { "type": "Point", "coordinates": [ -118.469793, 33.984812 ] } },
{ "type": "Feature", "properties": { "stop_id": "76", "stop_name": "Washington Blvd/Berryman Ave" }, "geometry": { "type": "Point", "coordinates": [ -118.416463, 34.001121 ] } },
{ "type": "Feature", "properties": { "stop_id": "23", "stop_name": "Washington Blvd/Kensington Rd" }, "geometry": { "type": "Point", "coordinates": [ -118.419511, 33.998044 ] } },
{ "type": "Feature", "properties": { "stop_id": "79", "stop_name": "Washington Blvd/Centinela Ave" }, "geometry": { "type": "Point", "coordinates": [ -118.429047, 33.99705 ] } },
{ "type": "Feature", "properties": { "stop_id": "515", "stop_name": "Washington Blvd/Grand View Blvd" }, "geometry": { "type": "Point", "coordinates": [ -118.425825, 33.99738 ] } },
{ "type": "Feature", "properties": { "stop_id": "726", "stop_name": "Washington Blvd/Hughes Ave", "nearside": true }, "geometry": { "type": "Point", "coordinates": [ -118.397405, 34.021841 ] } },
{ "type": "Feature", "properties": { "stop_id": "68", "stop_name": "Washington Blvd/Overland Ave", "nearside": true }, "geometry": { "type": "Point", "coordinates": [ -118.40533, 34.017083 ] } },
{ "type": "Feature", "properties": { "stop_id": "87", "stop_name": "Washington Blvd/Abbot Kinney Blvd" }, "geometry": { "type": "Point", "coordinates": [ -118.452592, 33.988081 ] } },
{ "type": "Feature", "properties": { "stop_id": "20", "stop_name": "Washington Blvd/Centinela Ave" }, "geometry": { "type": "Point", "coordinates": [ -118.427921, 33.996917 ] } },
{ "type": "Feature", "properties": { "stop_id": "40", "stop_name": "Washington Blvd/Higuera St" }, "geometry": { "type": "Point", "coordinates": [ -118.389964, 34.026041 ] } },
{ "type": "Feature", "properties": { "stop_id": "33", "stop_name": "Washington Blvd/Motor Ave" }, "geometry": { "type": "Point", "coordinates": [ -118.401928, 34.018881 ] } },
{ "type": "Feature", "properties": { "stop_id": "8", "stop_name": "Washington Blvd/Via Marina" }, "geometry": { "type": "Point", "coordinates": [ -118.461153, 33.982367 ] } },
{ "type": "Feature", "properties": { "stop_id": "12", "stop_name": "Washington Blvd/Abbot Kinney Blvd" }, "geometry": { "type": "Point", "coordinates": [ -118.451664, 33.988363 ] } },
{ "type": "Feature", "properties": { "stop_id": "7", "stop_name": "Washington Blvd/Via Dolce" }, "geometry": { "type": "Point", "coordinates": [ -118.46357, 33.980894 ] } },
{ "type": "Feature", "properties": { "stop_id": "52", "stop_name": "Washington Blvd/Helms Ave" }, "geometry": { "type": "Point", "coordinates": [ -118.384132, 34.02972 ] } },
{ "type": "Feature", "properties": { "stop_id": "17", "stop_name": "Washington Blvd/Beethoven St" }, "geometry": { "type": "Point", "coordinates": [ -118.43788, 33.995275 ] } },
{ "type": "Feature", "properties": { "stop_id": "10", "stop_name": "Washington Blvd/Wilson Ave" }, "geometry": { "type": "Point", "coordinates": [ -118.457152, 33.984934 ] } },
{ "type": "Feature", "properties": { "stop_id": "6", "stop_name": "Washington Blvd/Pacific Ave" }, "geometry": { "type": "Point", "coordinates": [ -118.465264, 33.979845 ] } },
{ "type": "Feature", "properties": { "stop_id": "36", "stop_name": "Washington Blvd/Madison Ave" }, "geometry": { "type": "Point", "coordinates": [ -118.39843, 34.020967 ] } },
{ "type": "Feature", "properties": { "stop_id": "14", "stop_name": "Washington Blvd/Lincoln Blvd" }, "geometry": { "type": "Point", "coordinates": [ -118.447441, 33.990498 ] } },
{ "type": "Feature", "properties": { "stop_id": "16", "stop_name": "Washington Blvd/Redwood Ave" }, "geometry": { "type": "Point", "coordinates": [ -118.442052, 33.993212 ] } },
{ "type": "Feature", "properties": { "stop_id": "38", "stop_name": "Culver Blvd/Lafayette Pl" }, "geometry": { "type": "Point", "coordinates": [ -118.395836, 34.021943 ] } },
{ "type": "Feature", "properties": { "stop_id": "51", "stop_name": "Washington Blvd/Cattaraugus Ave" }, "geometry": { "type": "Point", "coordinates": [ -118.381659, 34.030466 ] } },
{ "type": "Feature", "properties": { "stop_id": "55", "stop_name": "Culver Blvd/Main St" }, "geometry": { "type": "Point", "coordinates": [ -118.394502, 34.024061 ] } },
{ "type": "Feature", "properties": { "stop_id": "29", "stop_name": "Washington Blvd/Huron Ave" }, "geometry": { "type": "Point", "coordinates": [ -118.410541, 34.011272 ] } },
{ "type": "Feature", "properties": { "stop_id": "22", "stop_name": "Washington Blvd/Inglewood Blvd" }, "geometry": { "type": "Point", "coordinates": [ -118.421564, 33.997633 ] } },
{ "type": "Feature", "properties": { "stop_id": "47", "stop_name": "Fairfax Ave/Electric Dr" }, "geometry": { "type": "Point", "coordinates": [ -118.3691, 34.0356 ] } },
{ "type": "Feature", "properties": { "stop_id": "18", "stop_name": "Washington Blvd/Rosabell St" }, "geometry": { "type": "Point", "coordinates": [ -118.436028, 33.996215 ] } },
{ "type": "Feature", "properties": { "stop_id": "32", "stop_name": "Washington Blvd/Overland Ave" }, "geometry": { "type": "Point", "coordinates": [ -118.404838, 34.017129 ] } },
{ "type": "Feature", "properties": { "stop_id": "78", "stop_name": "Washington Blvd/Inglewood Blvd" }, "geometry": { "type": "Point", "coordinates": [ -118.422726, 33.99772 ] } },
{ "type": "Feature", "properties": { "stop_id": "83", "stop_name": "Washington Blvd/Redwood Ave" }, "geometry": { "type": "Point", "coordinates": [ -118.442619, 33.99319 ] } },
{ "type": "Feature", "properties": { "stop_id": "19", "stop_name": "Washington Blvd/Mildred Ave" }, "geometry": { "type": "Point", "coordinates": [ -118.432026, 33.996656 ] } },
{ "type": "Feature", "properties": { "stop_id": "42", "stop_name": "Washington Blvd/Helms Ave" }, "geometry": { "type": "Point", "coordinates": [ -118.383654, 34.029737 ] } },
{ "type": "Feature", "properties": { "stop_id": "714", "stop_name": "Washington Blvd/Ince Blvd" }, "geometry": { "type": "Point", "coordinates": [ -118.392084, 34.024727 ] } },
{ "type": "Feature", "properties": { "stop_id": "5", "stop_name": "Pacific Ave/N Venice Blvd" }, "geometry": { "type": "Point", "coordinates": [ -118.470176, 33.985095 ] } },
{ "type": "Feature", "properties": { "stop_id": "49", "stop_name": "Washington Blvd / La Cienega Blvd" }, "geometry": { "type": "Point", "coordinates": [ -118.374962, 34.032348 ] } },
{ "type": "Feature", "properties": { "stop_id": "66", "stop_name": "Washington Blvd/Jasmine Ave", "nearside": true }, "geometry": { "type": "Point", "coordinates": [ -118.400346, 34.020062 ] } },
{ "type": "Feature", "properties": { "stop_id": "30", "stop_name": "Washington Blvd/Girard Ave" }, "geometry": { "type": "Point", "coordinates": [ -118.408571, 34.013923 ] } },
{ "type": "Feature", "properties": { "stop_id": "21", "stop_name": "Washington Blvd/Grand View Blvd" }, "geometry": { "type": "Point", "coordinates": [ -118.425656, 33.997154 ] } },
{ "type": "Feature", "properties": { "stop_id": "92", "stop_name": "Washington Blvd/Strongs Dr", "nearside": true }, "geometry": { "type": "Point", "coordinates": [ -118.465281, 33.980104 ] } },
{ "type": "Feature", "properties": { "stop_id": "50", "stop_name": "Washington Blvd/Mcmanus Ave" }, "geometry": { "type": "Point", "coordinates": [ -118.379422, 34.031053 ] } },
{ "type": "Feature", "properties": { "stop_id": "15", "stop_name": "Washington Blvd/Glencoe Ave" }, "geometry": { "type": "Point", "coordinates": [ -118.444443, 33.992007 ] } },
{ "type": "Feature", "properties": { "stop_id": "80", "stop_name": "Washington Blvd/Washington Pl", "nearside": true }, "geometry": { "type": "Point", "coordinates": [ -118.434209, 33.996997 ] } },
{ "type": "Feature", "properties": { "stop_id": "41", "stop_name": "Washington Blvd/Landmark St (Expo)" }, "geometry": { "type": "Point", "coordinates": [ -118.38797, 34.02725 ] } },
{ "type": "Feature", "properties": { "stop_id": "715", "stop_name": "Washington Blvd/National Blvd" }, "geometry": { "type": "Point", "coordinates": [ -118.386385, 34.028207 ] } },
{ "type": "Feature", "properties": { "stop_id": "11", "stop_name": "Washington Blvd/Oxford Ave" }, "geometry": { "type": "Point", "coordinates": [ -118.45494, 33.986364 ] } }
]
}
